{
  "type": "FeatureCollection",
  "features": [
    {
      "type": "Feature",
      "properties": {
        "norad_id": 43783,
        "name": "KAZSTSAT",
        "group": "resource",
        "lat": 6.04326130787494,
        "lon": 29.940120506606032,
        "alt_km": 570.1125800105283,
        "timestamp": "2025-12-21T22:41:41.105342+00:00",
        "meta_object_name": "KAZSTSAT",
        "meta_object_id": "2018-099AB",
        "meta_epoch": "2025-12-21T01:50:44.888352",
        "meta_mean_motion": 14.99364891,
        "meta_eccentricity": 0.00060238,
        "meta_inclination": 97.4527,
        "meta_ra_of_asc_node": 29.903,
        "meta_arg_of_pericenter": 292.687,
        "meta_mean_anomaly": 67.3717,
        "meta_ephemeris_type": 0,
        "meta_classification_type": "U",
        "meta_norad_cat_id": 43783,
        "meta_element_set_no": 999,
        "meta_rev_at_epoch": 38461,
        "meta_bstar": 1.8043656e-05,
        "meta_mean_motion_dot": 1.65e-06,
        "meta_mean_motion_ddot": 0,
        "tle_line1": "1 43783U 18099AB  25355.07690843  .00000165  00000+0  18044-4 0  9991",
        "tle_line2": "2 43783  97.4527  29.9030 0006023 292.6870  67.3717 14.99364891384616"
      },
      "geometry": {
        "type": "Point",
        "coordinates": [
          29.940120506606032,
          6.04326130787494
        ]
      }
    },
    {
      "type": "Feature",
      "properties": {
        "norad_id": 43831,
        "name": "SAUDISAT 5A",
        "group": "resource",
        "lat": -30.656844805847065,
        "lon": -128.4191666819391,
        "alt_km": 502.02884435911983,
        "timestamp": "2025-12-21T22:41:41.105354+00:00",
        "meta_object_name": "SAUDISAT 5A",
        "meta_object_id": "2018-102A",
        "meta_epoch": "2025-12-21T15:28:41.170080",
        "meta_mean_motion": 15.25756888,
        "meta_eccentricity": 0.00113212,
        "meta_inclination": 97.334,
        "meta_ra_of_asc_node": 55.6643,
        "meta_arg_of_pericenter": 48.7445,
        "meta_mean_anomaly": 311.4767,
        "meta_ephemeris_type": 0,
        "meta_classification_type": "U",
        "meta_norad_cat_id": 43831,
        "meta_element_set_no": 999,
        "meta_rev_at_epoch": 38858,
        "meta_bstar": 0.0001951781,
        "meta_mean_motion_dot": 4.918e-05,
        "meta_mean_motion_ddot": 0,
        "tle_line1": "1 43831U 18102A   25355.64492095  .00004918  00000+0  19518-3 0  9998",
        "tle_line2": "2 43831  97.3340  55.6643 0011321  48.7445 311.4767 15.25756888388582"
      },
      "geometry": {
        "type": "Point",
        "coordinates": [
          -128.4191666819391,
          -30.656844805847065
        ]
      }
    },
    {
      "type": "Feature",
      "properties": {
        "norad_id": 43833,
        "name": "SAUDISAT 5B",
        "group": "resource",
        "lat": -81.38091492235331,
        "lon": 117.01581228605991,
        "alt_km": 500.6963844395468,
        "timestamp": "2025-12-21T22:41:41.105365+00:00",
        "meta_object_name": "SAUDISAT 5B",
        "meta_object_id": "2018-102C",
        "meta_epoch": "2025-12-21T15:12:02.685888",
        "meta_mean_motion": 15.26105058,
        "meta_eccentricity": 0.00120492,
        "meta_inclination": 97.3435,
        "meta_ra_of_asc_node": 58.4075,
        "meta_arg_of_pericenter": 50.824,
        "meta_mean_anomaly": 309.4067,
        "meta_ephemeris_type": 0,
        "meta_classification_type": "U",
        "meta_norad_cat_id": 43833,
        "meta_element_set_no": 999,
        "meta_rev_at_epoch": 38869,
        "meta_bstar": 0.00017859638,
        "meta_mean_motion_dot": 4.543e-05,
        "meta_mean_motion_ddot": 0,
        "tle_line1": "1 43833U 18102C   25355.63336442  .00004543  00000+0  17860-3 0  9994",
        "tle_line2": "2 43833  97.3435  58.4075 0012049  50.8240 309.4067 15.26105058388694"
      },
      "geometry": {
        "type": "Point",
        "coordinates": [
          117.01581228605991,
          -81.38091492235331
        ]
      }
    },
    {
      "type": "Feature",
      "properties": {
        "norad_id": 44622,
        "name": "GAOFEN-10R",
        "group": "resource",
        "lat": -46.41554239646231,
        "lon": 114.95958358356727,
        "alt_km": 631.546035890945,
        "timestamp": "2025-12-21T22:41:41.105376+00:00",
        "meta_object_name": "GAOFEN-10R",
        "meta_object_id": "2019-066A",
        "meta_epoch": "2025-12-21T15:11:46.466880",
        "meta_mean_motion": 14.8281974,
        "meta_eccentricity": 0.00072723,
        "meta_inclination": 98.029,
        "meta_ra_of_asc_node": 303.1746,
        "meta_arg_of_pericenter": 15.9542,
        "meta_mean_anomaly": 344.1899,
        "meta_ephemeris_type": 0,
        "meta_classification_type": "U",
        "meta_norad_cat_id": 44622,
        "meta_element_set_no": 999,
        "meta_rev_at_epoch": 33606,
        "meta_bstar": 0.00016089624,
        "meta_mean_motion_dot": 1.248e-05,
        "meta_mean_motion_ddot": 0,
        "tle_line1": "1 44622U 19066A   25355.63317670  .00001248  00000+0  16090-3 0  9996",
        "tle_line2": "2 44622  98.0290 303.1746 0007272  15.9542 344.1899 14.82819740336066"
      },
      "geometry": {
        "type": "Point",
        "coordinates": [
          114.95958358356727,
          -46.41554239646231
        ]
      }
    },
    {
      "type": "Feature",
      "properties": {
        "norad_id": 44804,
        "name": "CARTOSAT-3",
        "group": "resource",
        "lat": 25.60963779777487,
        "lon": -120.9878163694786,
        "alt_km": 509.08723541578547,
        "timestamp": "2025-12-21T22:41:41.105386+00:00",
        "meta_object_name": "CARTOSAT-3",
        "meta_object_id": "2019-081A",
        "meta_epoch": "2025-12-21T14:06:58.734720",
        "meta_mean_motion": 15.19222957,
        "meta_eccentricity": 0.00138456,
        "meta_inclination": 97.4572,
        "meta_ra_of_asc_node": 55.0597,
        "meta_arg_of_pericenter": 55.2266,
        "meta_mean_anomaly": 305.027,
        "meta_ephemeris_type": 0,
        "meta_classification_type": "U",
        "meta_norad_cat_id": 44804,
        "meta_element_set_no": 999,
        "meta_rev_at_epoch": 33650,
        "meta_bstar": 0.00028741462,
        "meta_mean_motion_dot": 6e-05,
        "meta_mean_motion_ddot": 0,
        "tle_line1": "1 44804U 19081A   25355.58817980  .00006000  00000+0  28741-3 0  9995",
        "tle_line2": "2 44804  97.4572  55.0597 0013845  55.2266 305.0270 15.19222957336501"
      },
      "geometry": {
        "type": "Point",
        "coordinates": [
          -120.9878163694786,
          25.60963779777487
        ]
      }
    },
    {
      "type": "Feature",
      "properties": {
        "norad_id": 44819,
        "name": "GAOFEN-12 01",
        "group": "resource",
        "lat": 61.74352186132257,
        "lon": -12.815297366371642,
        "alt_km": 622.0208285490035,
        "timestamp": "2025-12-21T22:41:41.105397+00:00",
        "meta_object_name": "GAOFEN-12 01",
        "meta_object_id": "2019-082A",
        "meta_epoch": "2025-12-21T14:18:10.139616",
        "meta_mean_motion": 14.80666961,
        "meta_eccentricity": 0.00019078,
        "meta_inclination": 97.8124,
        "meta_ra_of_asc_node": 1.6445,
        "meta_arg_of_pericenter": 190.8434,
        "meta_mean_anomaly": 169.2738,
        "meta_ephemeris_type": 0,
        "meta_classification_type": "U",
        "meta_norad_cat_id": 44819,
        "meta_element_set_no": 999,
        "meta_rev_at_epoch": 32781,
        "meta_bstar": 5.7121231e-05,
        "meta_mean_motion_dot": 3.88e-06,
        "meta_mean_motion_ddot": 0,
        "tle_line1": "1 44819U 19082A   25355.59595069  .00000388  00000+0  57121-4 0  9992",
        "tle_line2": "2 44819  97.8124   1.6445 0001907 190.8434 169.2738 14.80666961327819"
      },
      "geometry": {
        "type": "Point",
        "coordinates": [
          -12.815297366371642,
          61.74352186132257
        ]
      }
    },
    {
      "type": "Feature",
      "properties": {
        "norad_id": 44873,
        "name": "CSG-1",
        "group": "resource",
        "lat": -42.74844243493132,
        "lon": -10.224658224210273,
        "alt_km": 629.9703288574538,
        "timestamp": "2025-12-21T22:41:41.105407+00:00",
        "meta_object_name": "CSG-1",
        "meta_object_id": "2019-092A",
        "meta_epoch": "2025-12-21T15:12:36.039744",
        "meta_mean_motion": 14.82151387,
        "meta_eccentricity": 0.0001471,
        "meta_inclination": 97.8803,
        "meta_ra_of_asc_node": 176.8238,
        "meta_arg_of_pericenter": 85.6438,
        "meta_mean_anomaly": 274.4943,
        "meta_ephemeris_type": 0,
        "meta_classification_type": "U",
        "meta_norad_cat_id": 44873,
        "meta_element_set_no": 999,
        "meta_rev_at_epoch": 32517,
        "meta_bstar": 6.5088776e-05,
        "meta_mean_motion_dot": 4.66e-06,
        "meta_mean_motion_ddot": 0,
        "tle_line1": "1 44873U 19092A   25355.63375046  .00000466  00000+0  65089-4 0  9998",
        "tle_line2": "2 44873  97.8803 176.8238 0001471  85.6438 274.4943 14.82151387325176"
      },
      "geometry": {
        "type": "Point",
        "coordinates": [
          -10.224658224210273,
          -42.74844243493132
        ]
      }
    }
  ]
}